[{"OBJECT_NAME":"ARCSTONE","OBJECT_ID":"2025-135N","EPOCH":"2026-03-09T21:21:29.017152","MEAN_MOTION":15.28638458,"ECCENTRICITY":0.00041199,"INCLINATION":97.4495,"RA_OF_ASC_NODE":185.9194,"ARG_OF_PERICENTER":166.7863,"MEAN_ANOMALY":193.3485,"EPHEMERIS_TYPE":0,"CLASSIFICATION_TYPE":"U","NORAD_CAT_ID":64540,"ELEMENT_SET_NO":999,"REV_AT_EPOCH":3984,"BSTAR":0.00094899777,"MEAN_MOTION_DOT":0.00026427,"MEAN_MOTION_DDOT":0},{"OBJECT_NAME":"STARLINK-36146","OBJECT_ID":"2026-005Y","EPOCH":"2026-03-09T12:06:16.216704","MEAN_MOTION":15.27600398,"ECCENTRICITY":0.00020689,"INCLINATION":42.9999,"RA_OF_ASC_NODE":239.4128,"ARG_OF_PERICENTER":283.3401,"MEAN_ANOMALY":76.722,"EPHEMERIS_TYPE":0,"CLASSIFICATION_TYPE":"U","NORAD_CAT_ID":67426,"ELEMENT_SET_NO":999,"REV_AT_EPOCH":865,"BSTAR":0.0011987752,"MEAN_MOTION_DOT":0.00032894,"MEAN_MOTION_DDOT":0}]
